[{"OBJECT_NAME":"GARAI-A","OBJECT_ID":"2025-009AC","EPOCH":"2026-03-09T21:36:19.316448","MEAN_MOTION":15.20920537,"ECCENTRICITY":0.00014341,"INCLINATION":97.4043,"RA_OF_ASC_NODE":150.5243,"ARG_OF_PERICENTER":352.7468,"MEAN_ANOMALY":7.3747,"EPHEMERIS_TYPE":0,"CLASSIFICATION_TYPE":"U","NORAD_CAT_ID":62635,"ELEMENT_SET_NO":999,"REV_AT_EPOCH":6369,"BSTAR":0.00042225314,"MEAN_MOTION_DOT":9.278e-5,"MEAN_MOTION_DDOT":0},{"OBJECT_NAME":"SUPERVIEW NEO-1 04","OBJECT_ID":"2025-040B","EPOCH":"2026-03-06T19:28:03.599328","MEAN_MOTION":15.21660643,"ECCENTRICITY":0.00018105,"INCLINATION":97.3404,"RA_OF_ASC_NODE":182.7609,"ARG_OF_PERICENTER":125.6161,"MEAN_ANOMALY":234.5244,"EPHEMERIS_TYPE":0,"CLASSIFICATION_TYPE":"U","NORAD_CAT_ID":63126,"ELEMENT_SET_NO":999,"REV_AT_EPOCH":5662,"BSTAR":0.00040582804,"MEAN_MOTION_DOT":9.111e-5,"MEAN_MOTION_DDOT":0}]
